NORAD_CAT_ID,OBJECT_NAME,OBJECT_TYPE,EPOCH,MEAN_MOTION,ECCENTRICITY,INCLINATION,RA_OF_ASC_NODE,ARG_OF_PERICENTER,MEAN_ANOMALY,BSTAR,MEAN_MOTION_DOT,MEAN_MOTION_DDOT,TLE_LINE0,TLE_LINE1,TLE_LINE2,SEMIMAJOR_AXIS,PERIOD,APOGEE,PERIGEE,DECAYED
51784.0,STARLINK-3632,PAYLOAD,2024-03-28 21:47:41,15.08845278,0.0001477,53.2163,299.9453,66.7884,293.3263,0.00022712,3.329e-05,0.0,0 STARLINK-3632,1 51784U 22017S   24088.90812346  .00003329  00000-0  22712-3 0  9996,2 51784  53.2163 299.9453 0001477  66.7884 293.3263 15.08845278114974,6917.864,95.437,540.751,538.707,0.0
51784.0,STARLINK-3632,PAYLOAD,2024-03-29 07:20:00,15.08846107,0.0001263,53.2154,298.1594,73.079,287.034,0.00020218,2.932e-05,0.0,0 STARLINK-3632,1 51784U 22017S   24089.30556203  .00002932  00000-0  20218-3 0  9996,2 51784  53.2154 298.1594 0001263  73.0790 287.0340 15.08846107115037,6917.862,95.437,540.6,538.853,0.0
51784.0,STARLINK-3632,PAYLOAD,2024-03-29 20:03:05,15.0884896,0.0001253,53.2169,295.7787,80.3542,279.7592,0.00018759,2.7e-05,0.0,0 STARLINK-3632,1 51784U 22017S   24089.83547976  .00002700  00000-0  18759-3 0  9991,2 51784  53.2169 295.7787 0001253  80.3542 279.7592 15.08848960115110,6917.853,95.437,540.585,538.851,0.0
51784.0,STARLINK-3632,PAYLOAD,2024-03-29 23:13:51,15.08852902,0.0001468,53.2161,295.1867,74.4505,285.6649,0.00025772,3.817e-05,0.0,0 STARLINK-3632,1 51784U 22017S   24089.96795837  .00003817  00000-0  25772-3 0  9999,2 51784  53.2161 295.1867 0001468  74.4505 285.6649 15.08852902116780,6917.841,95.437,540.721,538.69,0.0
51784.0,STARLINK-3632,PAYLOAD,2024-03-30 07:10:47,15.08843012,0.0001455,53.2156,293.6988,76.2154,283.9,6.3984e-05,7.31e-06,0.0,0 STARLINK-3632,1 51784U 22017S   24090.29916122  .00000731  00000-0  63984-4 0  9999,2 51784  53.2156 293.6988 0001455  76.2154 283.9000 15.08843012116837,6917.871,95.437,540.743,538.73,0.0
51784.0,STARLINK-3632,PAYLOAD,2024-03-30 19:53:52,15.08840605,0.0001517,53.216,291.3213,81.8458,278.2706,6.4406e-05,7.37e-06,0.0,0 STARLINK-3632,1 51784U 22017S   24090.82908422  .00000737  00000-0  64406-4 0  9998,2 51784  53.2160 291.3213 0001517  81.8458 278.2706 15.08840605115267,6917.879,95.438,540.793,538.694,0.0
51784.0,STARLINK-3632,PAYLOAD,2024-03-31 19:44:39,15.08835005,0.0001417,53.2151,286.8597,83.0708,277.0445,-0.00015753,-2.794e-05,0.0,0 STARLINK-3632,1 51784U 22017S   24091.82267397 -.00002794  00000-0 -15753-3 0  9995,2 51784  53.2151 286.8597 0001417  83.0708 277.0445 15.08835005117067,6917.896,95.438,540.741,538.78,0.0
51784.0,STARLINK-3632,PAYLOAD,2024-03-31 22:55:25,15.08833394,0.0001558,53.2151,286.2634,87.8445,272.2725,-5.1805e-05,-1.112e-05,0.0,0 STARLINK-3632,1 51784U 22017S   24091.95515552 -.00001112  00000-0 -51805-4 0  9990,2 51784  53.2151 286.2634 0001558  87.8445 272.2725 15.08833394115435,6917.901,95.438,540.843,538.688,0.0
51784.0,STARLINK-3632,PAYLOAD,2024-04-01 13:13:54,15.08833048,0.0002515,53.216,283.5863,89.6428,270.4853,-0.00037976,-6.326e-05,0.0,0 STARLINK-3632,1 51784U 22017S   24092.55132022 -.00006326  00000-0 -37976-3 0  9998,2 51784  53.2160 283.5863 0002515  89.6428 270.4853 15.08833048115522,6917.902,95.438,541.506,538.027,0.0
51784.0,STARLINK-3632,PAYLOAD,2024-04-01 19:35:27,15.08829111,0.0001216,53.217,282.3993,92.8363,267.2768,5.4312e-05,5.76e-06,0.0,0 STARLINK-3632,1 51784U 22017S   24092.81628586  .00000576  00000-0  54312-4 0  9995,2 51784  53.2170 282.3993 0001216  92.8363 267.2768 15.08829111117218,6917.914,95.438,540.62,538.937,0.0
51784.0,STARLINK-3632,PAYLOAD,2024-04-02 05:07:40,15.08958046,0.0002115,53.2177,280.6149,120.7489,239.3712,-0.0020262,-0.00032495,0.0,0 STARLINK-3632,1 51784U 22017S   24093.21366896 -.00032495  00000-0 -20262-2 0  9995,2 51784  53.2177 280.6149 0002115 120.7489 239.3712 15.08958046117273,6917.52,95.43,540.848,537.922,0.0
51784.0,STARLINK-3632,PAYLOAD,2024-04-02 11:29:18,15.08824961,0.0001547,53.2174,279.4264,90.7615,269.3554,0.00018681,2.685e-05,0.0,0 STARLINK-3632,1 51784U 22017S   24093.47868747  .00002685  00000-0  18681-3 0  9994,2 51784  53.2174 279.4264 0001547  90.7615 269.3554 15.08824961117319,6917.926,95.439,540.862,538.721,0.0
51784.0,STARLINK-3632,PAYLOAD,2024-04-02 14:40:04,15.08825366,0.0001488,53.2165,278.8315,92.5427,267.5735,0.00014687,2.049e-05,0.0,0 STARLINK-3632,1 51784U 22017S   24093.61116836  .00002049  00000-0  14687-3 0  9991,2 51784  53.2165 278.8315 0001488  92.5427 267.5735 15.08825366115683,6917.925,95.438,540.82,538.761,0.0
51784.0,STARLINK-3632,PAYLOAD,2024-04-02 21:01:37,15.08831935,0.0001483,53.2165,277.6413,88.3122,271.804,0.00022413,3.28e-05,0.0,0 STARLINK-3632,1 51784U 22017S   24093.87612769  .00003280  00000-0  22413-3 0  9999,2 51784  53.2165 277.6413 0001483  88.3122 271.8040 15.08831935115720,6917.905,95.438,540.796,538.744,0.0
51784.0,STARLINK-3632,PAYLOAD,2024-04-03 04:58:33,15.08833716,0.0001451,53.2162,276.1553,92.2246,267.8912,0.00021659,3.16e-05,0.0,0 STARLINK-3632,1 51784U 22017S   24094.20732894  .00003160  00000-0  21659-3 0  9997,2 51784  53.2162 276.1553 0001451  92.2246 267.8912 15.08833716115779,6917.9,95.438,540.768,538.761,0.0
51784.0,STARLINK-3632,PAYLOAD,2024-04-03 20:52:24,15.08841336,0.0001459,53.2162,273.1819,96.5052,263.6106,0.00023359,3.432e-05,0.0,0 STARLINK-3632,1 51784U 22017S   24094.86972789  .00003432  00000-0  23359-3 0  9999,2 51784  53.2162 273.1819 0001459  96.5052 263.6106 15.08841336117522,6917.876,95.437,540.751,538.732,0.0
51784.0,STARLINK-3632,PAYLOAD,2024-04-03 22:27:47,15.08843197,0.0001423,53.2161,272.884,92.2753,267.8402,0.00025135,3.715e-05,0.0,0 STARLINK-3632,1 51784U 22017S   24094.93596716  .00003715  00000-0  25135-3 0  9997,2 51784  53.2161 272.8840 0001423  92.2753 267.8402 15.08843197115882,6917.871,95.437,540.72,538.751,0.0
51784.0,STARLINK-3632,PAYLOAD,2024-04-04 04:49:20,15.08842221,0.0001452,53.2165,271.693,86.1303,273.9855,0.0001864,2.68e-05,0.0,0 STARLINK-3632,1 51784U 22017S   24095.20092768  .00002680  00000-0  18640-3 0  9999,2 51784  53.2165 271.6930 0001452  86.1303 273.9855 15.08842221115920,6917.874,95.437,540.743,538.734,0.0
51784.0,STARLINK-3632,PAYLOAD,2024-04-04 20:43:11,15.08843818,0.0001468,53.2167,268.7194,83.8891,276.2269,0.00012077,1.635e-05,0.0,0 STARLINK-3632,1 51784U 22017S   24095.86332742  .00001635  00000-0  12077-3 0  9997,2 51784  53.2167 268.7194 0001468  83.8891 276.2269 15.08843818116024,6917.869,95.437,540.749,538.718,0.0
51784.0,STARLINK-3632,PAYLOAD,2024-04-05 11:01:39,15.08846222,0.0001417,53.2165,266.0454,88.2648,271.8506,0.0001472,2.056e-05,0.0,0 STARLINK-3632,1 51784U 22017S   24096.45948537  .00002056  00000-0  14720-3 0  9993,2 51784  53.2165 266.0454 0001417  88.2648 271.8506 15.08846222117764,6917.861,95.437,540.707,538.746,0.0
51784.0,STARLINK-3632,PAYLOAD,2024-04-05 18:58:34,15.08851252,0.0001354,53.216,264.5578,89.1485,270.9662,0.00015397,2.164e-05,0.0,0 STARLINK-3632,1 51784U 22017S   24096.79068141  .00002164  00000-0  15397-3 0  9995,2 51784  53.2160 264.5578 0001354  89.1485 270.9662 15.08851252116163,6917.846,95.437,540.648,538.774,0.0
51784.0,STARLINK-3632,PAYLOAD,2024-04-06 10:52:26,15.08844997,0.0001342,53.2148,261.5836,107.0803,253.0336,-4.8369e-05,-1.058e-05,0.0,0 STARLINK-3632,1 51784U 22017S   24097.45308225 -.00001058  00000-0 -48369-4 0  9998,2 51784  53.2148 261.5836 0001342 107.0803 253.0336 15.08844997116263,6917.865,95.437,540.658,538.802,0.0
51784.0,STARLINK-3632,PAYLOAD,2024-04-06 17:13:59,15.08838604,0.0001281,53.2151,260.3939,89.8078,270.3061,5.4478e-05,5.79e-06,0.0,0 STARLINK-3632,1 51784U 22017S   24097.71804657  .00000579  00000-0  54478-4 0  9990,2 51784  53.2151 260.3939 0001281  89.8078 270.3061 15.08838604117953,6917.885,95.438,540.636,538.863,0.0
51784.0,STARLINK-3632,PAYLOAD,2024-04-07 10:43:13,15.08839159,0.0001442,53.2156,257.1223,91.7636,268.3521,-3.0217e-05,-7.69e-06,0.0,0 STARLINK-3632,1 51784U 22017S   24098.44668793 -.00000769  00000-0 -30217-4 0  9998,2 51784  53.2156 257.1223 0001442  91.7636 268.3521 15.08839159116413,6917.883,95.438,540.746,538.75,0.0
51784.0,STARLINK-3632,PAYLOAD,2024-04-07 17:04:46,15.08841142,0.0001533,53.2171,255.9334,91.5944,268.5223,-2.1569e-05,-6.31e-06,0.0,0 STARLINK-3632,1 51784U 22017S   24098.71164946 -.00000631  00000-0 -21569-4 0  9997,2 51784  53.2171 255.9334 0001533  91.5944 268.5223 15.08841142116450,6917.877,95.437,540.802,538.681,0.0
51784.0,STARLINK-3632,PAYLOAD,2024-04-08 20:06:19,15.08839226,0.0001759,53.2167,250.8786,93.7042,266.4152,9.3341e-05,1.198e-05,0.0,0 STARLINK-3632,1 51784U 22017S   24099.83772947  .00001198  00000-0  93341-4 0  9991,2 51784  53.2167 250.8786 0001759  93.7042 266.4152 15.08839226118273,6917.883,95.438,540.965,538.531,0.0
51784.0,STARLINK-3632,PAYLOAD,2024-04-09 10:24:48,15.08837208,0.0001854,53.2178,248.2024,94.1803,265.9401,8.8054e-05,1.113e-05,0.0,0 STARLINK-3632,1 51784U 22017S   24100.43389258  .00001113  00000-0  88054-4 0  9991,2 51784  53.2178 248.2024 0001854  94.1803 265.9401 15.08837208116713,6917.889,95.438,541.036,538.471,0.0
51784.0,STARLINK-3632,PAYLOAD,2024-04-09 16:46:20,15.08842017,0.0001816,53.2169,247.0132,93.8316,266.2883,0.00012576,1.714e-05,0.0,0 STARLINK-3632,1 51784U 22017S   24100.69884914  .00001714  00000-0  12576-3 0  9990,2 51784  53.2169 247.0132 0001816  93.8316 266.2883 15.08842017116759,6917.874,95.437,540.996,538.483,0.0
51784.0,STARLINK-3632,PAYLOAD,2024-04-10 05:29:26,15.08827863,0.0001489,53.214,244.6342,87.9944,272.1218,0.00013831,1.913e-05,0.0,0 STARLINK-3632,1 51784U 22017S   24101.22877601  .00001913  00000-0  13831-3 0  9991,2 51784  53.2140 244.6342 0001489  87.9944 272.1218 15.08827863118483,6917.917,95.438,540.813,538.752,0.0
51784.0,STARLINK-3632,PAYLOAD,2024-04-10 08:40:12,15.08838763,0.000142,53.2169,244.0409,91.3354,268.7801,3.3893e-05,2.51e-06,0.0,0 STARLINK-3632,1 51784U 22017S   24101.36125529  .00000251  00000-0  33893-4 0  9996,2 51784  53.2169 244.0409 0001420  91.3354 268.7801 15.08838763116850,6917.884,95.438,540.732,538.767,0.0
